INTELSAT 902 (IS-902)   
1 26900U 01039A   26197.47382821 -.00000297  00000+0  00000+0 0  9997
2 26900   6.1880  71.4225 0004204  43.0240 300.3380  1.00272190 90981
INTELSAT 904 (IS-904)   
1 27380U 02007A   26197.09558765 -.00000239  00000+0  00000+0 0  9992
2 27380   6.9902  68.8335 0005387  26.1937 201.8403  1.00270497 52052
DIRECTV 5 (TEMPO 1)     
1 27426U 02023A   26197.60452331 -.00000070  00000+0  00000+0 0  9993
2 27426   4.9511  74.9419 0003143  47.6933 279.3107  1.00271525 88413
INTELSAT 905 (IS-905)   
1 27438U 02027A   26197.44697679  .00000080  00000+0  00000+0 0  9998
2 27438   6.8249  69.4433 0003476  48.2232 200.3100  1.00271599 51652
GALAXY 3C (G-3C)        
1 27445U 02030A   26197.56572663 -.00000165  00000+0  00000+0 0  9993
2 27445   3.8079  77.5943 0001598  32.9525 292.6724  1.00270775 46781
INTELSAT 906 (IS-906)   
1 27513U 02041A   26197.21130720 -.00000001  00000+0  00000+0 0  9996
2 27513   5.8734  72.5616 0003773  26.2641 335.4486  1.00273353 87322
GALAXY 13 (HORIZONS-1)  
1 27954U 03044A   26197.59663661  .00000121  00000+0  00000+0 0  9997
2 27954   1.4926  83.4858 0002129  32.5433 243.1689  1.00271913 46862
INTELSAT 10-02          
1 28358U 04022A   26197.55489065 -.00000022  00000+0  00000+0 0  9994
2 28358   0.0555 253.3667 0000365 350.4485 249.3254  1.00272039 80852
DIRECTV 8               
1 28659U 05019A   26197.60278998  .00000000  00000+0  00000+0 0  9997
2 28659   0.0210  62.2750 0003050  59.6305 270.4859  1.00270556 77367
GALAXY 28 (G-28)        
1 28702U 05022A   26197.47842156 -.00000213  00000+0  00000+0 0  9995
2 28702   3.3713  78.5710 0002517  29.3186 331.5558  1.00271714 52279
GALAXY 16 (G-16)        
1 29236U 06023A   26197.53547721 -.00000137  00000+0  00000+0 0  9992
2 29236   0.0251 156.8860 0002544 316.3968 274.8420  1.00271522 73262
DIRECTV 9S              
1 29494U 06043A   26197.60625666 -.00000125  00000+0  00000+0 0  9990
2 29494   2.4949  80.5470 0004958  31.6743 299.2633  1.00271385 51672
GALAXY 17 (G-17)        
1 31307U 07016B   26197.53825057 -.00000218  00000+0  00000+0 0  9998
2 31307   3.0439  79.5289 0003602  35.1886 288.3967  1.00271518 70091
INTELSAT 11 (IS-11)     
1 32253U 07044B   26197.41195903 -.00000193  00000+0  00000+0 0  9999
2 32253   3.6396  78.3141 0004250 100.3207 261.1706  0.99052543 68747
HORIZONS-2              
1 32388U 07063B   26197.25526961 -.00000265  00000+0  00000+0 0  9993
2 32388   2.6751  80.2685 0003581  21.4177 210.4729  1.00268963 68100
DIRECTV 11              
1 32729U 08013A   26197.60651666 -.00000136  00000+0  00000+0 0  9995
2 32729   0.0283 224.0214 0000065 298.6657 250.9069  1.00271885 45885
GALAXY 18 (G-18)        
1 32951U 08024A   26197.60200997  .00000015  00000+0  00000+0 0  9996
2 32951   0.0137  74.1550 0002825  40.3684 273.6113  1.00270713 46146
GALAXY 19 (G-19)        
1 33376U 08045A   26197.53582389 -.00000150  00000+0  00000+0 0  9992
2 33376   0.0533 245.2732 0002384 240.1709 264.8197  1.00270909 65196
FM-5                    
1 35493U 09034A   26197.30508036 -.00000210  00000+0  00000+0 0  9992
2 35493   0.0452 243.1296 0000529 102.7053 331.9579  1.00269724 46938
INTELSAT 14 (IS-14)     
1 36097U 09064A   26197.26098963 -.00000284  00000+0  00000+0 0  9995
2 36097   0.0162 343.2667 0002251 141.4450 218.3188  1.00268332 60895
INTELSAT 15 (IS-15)     
1 36106U 09067A   26197.64585384 -.00000196  00000+0  00000+0 0  9991
2 36106   0.0173  10.3163 0002112 104.7268 137.0726  1.00272564 41522
DIRECTV 12              
1 36131U 09075A   26197.60599666 -.00000114  00000+0  00000+0 0  9992
2 36131   0.0418 209.1378 0000293   3.4441 197.2818  1.00272634 46842
INTELSAT 16 (IS-16)     
1 36397U 10006A   26197.25483627 -.00000255  00000+0  00000+0 0  9998
2 36397   0.0127  52.8977 0002390  85.3261 171.3870  1.00269781 59945
XM-5                    
1 37185U 10053A   26197.50391781 -.00000034  00000+0  00000+0 0  9998
2 37185   0.0597 263.5264 0001623 317.5691 139.4384  1.00271433 57778
INTELSAT 17 (IS-17)     
1 37238U 10065B   26197.49688164 -.00000012  00000+0  00000+0 0  9998
2 37238   0.0031 110.1539 0002736  26.6429  42.3903  1.00271548 53542
INTELSAT 28 (IS-28)     
1 37392U 11016A   26197.40623900 -.00000237  00000+0  00000+0 0  9993
2 37392   1.8799  82.2660 0003716  40.3530 286.1540  1.00272070 53571
INTELSAT 18 (IS-18)     
1 37834U 11056A   26197.57753206  .00000042  00000+0  00000+0 0  9992
2 37834   0.0428 241.5679 0001764 247.3410 193.3989  1.00272102 54101
INTELSAT 22 (IS-22)     
1 38098U 12011A   26197.56931692 -.00000069  00000+0  00000+0 0  9993
2 38098   0.0160  48.1831 0001840  77.0660  86.2004  1.00271882  7489
INTELSAT 19 (IS-19)     
1 38356U 12030A   26197.59419667 -.00000067  00000+0  00000+0 0  9995
2 38356   0.0199  39.1241 0002851  76.5864 198.6067  1.00271594 50740
INTELSAT 20 (IS-20)     
1 38740U 12043A   26197.35467046 -.00000035  00000+0  00000+0 0  9999
2 38740   0.0129  67.3182 0001382 112.0823 310.9711  1.00272457 51044
INTELSAT 21 (IS-21)     
1 38749U 12045A   26197.54353726 -.00000295  00000+0  00000+0 0  9998
2 38749   0.0498 248.2020 0001575 238.4388 305.4045  1.00272545 50817
